      2.10          N: GNSS NAV DATA                        RINEX VERSION / TYPE
fic2rin                                 07/05/2021 00:17:07 PGM / RUN BY / DATE
                                                            END OF HEADER
22 21  7  4 14  0  0.0-5.720709450543e-04 9.549694368616e-12 0.000000000000e+00
    2.400000000000e+01-4.125000000000e+00 5.138428321879e-09 1.464250548941e+00
   -3.557652235031e-07 6.953927571885e-03 7.241964340210e-06 5.153793020248e+03
    5.040000000000e+04 1.881271600723e-07 3.033062499045e+00 0.000000000000e+00
    9.357810202699e-01 2.223125000000e+02-9.273698879239e-01-8.264629969297e-09
    2.264380034803e-10 1.000000000000e+00 2.165000000000e+03 0.000000000000e+00
    2.400000000000e+00 0.000000000000e+00-1.769512891769e-08 2.400000000000e+01
    4.320000000000e+04 4.000000000000e+00
13 21  7  4 14  0  0.0 1.532854512334e-04 5.002220859751e-12 0.000000000000e+00
    1.600000000000e+01-1.956250000000e+01 4.461971573312e-09 1.953189743107e+00
   -1.043081283569e-06 5.074075888842e-03 6.949529051781e-06 5.153677358627e+03
    5.040000000000e+04-5.029141902924e-08-1.970724905334e+00-1.117587089539e-07
    9.678312849378e-01 2.491250000000e+02 9.580124479667e-01-8.002476192397e-09
   -1.653640309328e-10 1.000000000000e+00 2.165000000000e+03 0.000000000000e+00
    2.400000000000e+00 0.000000000000e+00-1.117587089539e-08 1.600000000000e+01
    4.320000000000e+04 4.000000000000e+00
32 21  7  4 14  0  0.0 1.576216891408e-05-1.818989403546e-12 0.000000000000e+00
    1.500000000000e+01-2.006250000000e+01 4.595548565901e-09-3.070714135135e+00
   -9.834766387939e-07 5.041329306550e-03 6.547197699547e-06 5.153685716629e+03
    5.040000000000e+04-1.676380634308e-08-2.109805990048e+00-5.029141902924e-08
    9.571196744134e-01 2.499375000000e+02-2.359096066780e+00-7.990689987169e-09
   -6.928860043404e-11 1.000000000000e+00 2.165000000000e+03 0.000000000000e+00
    2.400000000000e+00 0.000000000000e+00 4.656612873077e-10 1.500000000000e+01
    4.320000000000e+04 4.000000000000e+00
29 21  7  4 14  0  0.0-3.747595474124e-04-6.139089236967e-12 0.000000000000e+00
    5.900000000000e+01-2.956250000000e+01 4.311965324949e-09 2.599676207223e+00
   -1.421198248863e-06 1.957855070941e-03 3.622844815254e-06 5.153615083694e+03
    5.040000000000e+04 1.229345798492e-07 1.112042422516e+00 7.450580596924e-09
    9.836021533321e-01 3.219375000000e+02 2.211700289669e+00-8.115338036403e-09
   -1.175048945505e-10 1.000000000000e+00 2.165000000000e+03 0.000000000000e+00
    2.400000000000e+00 0.000000000000e+00-9.778887033463e-09 5.900000000000e+01
    4.320000000000e+04 4.000000000000e+00
27 21  7  4 14  0  0.0-1.575909554958e-04-6.025402399246e-12 0.000000000000e+00
    4.200000000000e+01-2.587500000000e+01 4.401969073967e-09 2.456788921268e+00
   -1.437962055206e-06 9.437967557460e-03 4.000961780548e-06 5.153685596466e+03
    5.040000000000e+04-1.545995473862e-07 1.038508148913e+00-1.508742570877e-07
    9.755176584090e-01 3.109062500000e+02 6.356853551895e-01-7.999976088258e-09
   -9.250385315679e-11 1.000000000000e+00 2.165000000000e+03 0.000000000000e+00
    2.400000000000e+00 0.000000000000e+00 1.862645149231e-09 4.200000000000e+01
    4.320000000000e+04 4.000000000000e+00
19 21  7  4 14  0  0.0 2.189585939050e-05 5.002220859751e-12 0.000000000000e+00
    3.800000000000e+01-3.856250000000e+01 4.358395830395e-09-1.328903700139e+00
   -1.819804310799e-06 9.308989858255e-03 4.470348358154e-06 5.153638523102e+03
    5.040000000000e+04-1.899898052216e-07 1.144628611130e+00 8.754432201385e-08
    9.802698161268e-01 3.063437500000e+02 1.878682191568e+00-8.207841889560e-09
   -1.710785546799e-10 1.000000000000e+00 2.165000000000e+03 0.000000000000e+00
    2.400000000000e+00 0.000000000000e+00-1.536682248116e-08 3.800000000000e+01
    4.320000000000e+04 4.000000000000e+00
15 21  7  4 14  0  0.0-1.378846354783e-04 2.614797267597e-12 0.000000000000e+00
    7.700000000000e+01-1.828125000000e+01 5.483085535378e-09 1.608861848742e+00
   -1.110136508942e-06 1.328141381964e-02 6.143003702164e-06 5.153635028839e+03
    5.040000000000e+04-2.495944499969e-07-2.220112487019e+00-1.210719347000e-07
    9.289269711141e-01 2.490625000000e+02 9.955685364885e-01-8.602858343581e-09
   -1.060758470562e-10 1.000000000000e+00 2.165000000000e+03 0.000000000000e+00
    2.400000000000e+00 0.000000000000e+00-1.071020960808e-08 7.700000000000e+01
    4.320000000000e+04 4.000000000000e+00
21 21  7  4 14  0  0.0 1.291790977120e-04 2.387423592154e-12 0.000000000000e+00
    4.100000000000e+01-6.593750000000e+01 4.452328314488e-09 2.644984380570e+00
   -3.144145011902e-06 2.401073975489e-02 8.184462785721e-06 5.153675897598e+03
    5.040000000000e+04 4.284083843231e-07 2.012073519738e+00 1.415610313416e-07
    9.574917149618e-01 2.124687500000e+02-1.117810610487e+00-7.735679364953e-09
   -2.407243128482e-10 1.000000000000e+00 2.165000000000e+03 0.000000000000e+00
    2.400000000000e+00 0.000000000000e+00-1.024454832077e-08 4.100000000000e+01
    4.320000000000e+04 4.000000000000e+00
14 21  7  4 14  0  0.0 5.528703331947e-05-8.753886504564e-12 0.000000000000e+00
    9.000000000000e+01 8.512500000000e+01 4.732697135832e-09-9.303270436956e-01
    4.310160875320e-06 8.730845293030e-04 5.599111318588e-06 5.153754102707e+03
    5.040000000000e+04 1.490116119385e-08 3.557634489185e-02-1.303851604462e-08
    9.569304810699e-01 2.681562500000e+02 2.910148543345e+00-8.260701234221e-09
    2.332240004300e-10 1.000000000000e+00 2.165000000000e+03 0.000000000000e+00
    2.400000000000e+00 0.000000000000e+00-7.916241884232e-09 9.000000000000e+01
    4.320000000000e+04 4.000000000000e+00
31 21  7  4 14  0  0.0-1.267446205020e-04-2.160049916711e-12 0.000000000000e+00
    8.800000000000e+01 2.859375000000e+01 4.454114103159e-09-8.461619360525e-01
    1.549720764160e-06 1.003255974501e-02 9.102746844292e-06 5.153565404892e+03
    5.040000000000e+04 2.216547727585e-07-1.030050997553e+00-7.450580596924e-08
    9.556545180694e-01 1.950937500000e+02 2.680563781498e-01-7.977475151004e-09
   -9.571827276455e-11 1.000000000000e+00 2.165000000000e+03 0.000000000000e+00
    2.400000000000e+00 0.000000000000e+00-1.303851604462e-08 8.800000000000e+01
    4.320000000000e+04 4.000000000000e+00
30 21  7  4 14  0  0.0-4.468197003007e-04-4.547473508865e-12 0.000000000000e+00
    6.400000000000e+01 3.565625000000e+01 4.903418532778e-09-4.668826144378e-01
    1.944601535797e-06 5.339715396985e-03 1.002289354801e-05 5.153684135437e+03
    5.040000000000e+04 8.568167686462e-08-1.030664020208e+00 3.725290298462e-08
    9.365559074957e-01 1.710937500000e+02-2.750361497539e+00-8.220699567991e-09
   -1.071473202588e-10 1.000000000000e+00 2.165000000000e+03 0.000000000000e+00
    2.400000000000e+00 0.000000000000e+00 3.725290298462e-09 6.400000000000e+01
    4.320000000000e+04 4.000000000000e+00
26 21  7  4 14  0  0.0 1.064715906978e-04 4.661160346586e-12 0.000000000000e+00
    8.600000000000e+01 8.546875000000e+01 5.011280168505e-09-1.976020907237e+00
    4.151836037636e-06 5.900953081436e-03 5.925074219704e-06 5.153587837219e+03
    5.040000000000e+04 4.097819328308e-08-5.337447395822e-02-7.823109626770e-08
    9.417248344822e-01 2.560625000000e+02 3.038928840041e-01-8.303917320059e-09
    2.392956819114e-10 1.000000000000e+00 2.165000000000e+03 0.000000000000e+00
    2.400000000000e+00 0.000000000000e+00 6.984919309616e-09 8.600000000000e+01
    4.320000000000e+04 4.000000000000e+00
25 21  7  4 14  0  0.0 1.675304956734e-04 6.707523425575e-12 0.000000000000e+00
    1.070000000000e+02 8.334375000000e+01 4.595191408167e-09-1.299008351838e+00
    4.567205905914e-06 9.831631672569e-03 5.966052412987e-06 5.153610074997e+03
    5.040000000000e+04 1.806765794754e-07-1.062648624723e-02 1.136213541031e-07
    9.608218197540e-01 2.644375000000e+02 9.729422891459e-01-8.121409717885e-09
    2.239378993409e-10 1.000000000000e+00 2.165000000000e+03 0.000000000000e+00
    2.400000000000e+00 0.000000000000e+00 5.587935447693e-09 1.070000000000e+02
    4.320000000000e+04 4.000000000000e+00
24 21  7  4 14  0  0.0 1.608459278941e-04 1.557509676786e-11 0.000000000000e+00
    6.200000000000e+01 1.687500000000e+01 5.006637117961e-09 6.494712602620e-01
    8.288770914078e-07 1.119259791449e-02 9.592622518539e-06 5.153726104736e+03
    5.040000000000e+04-1.564621925354e-07-1.126185712624e+00 1.620501279831e-07
    9.346988778229e-01 1.830937500000e+02 7.432422420398e-01-8.302488689122e-09
   -2.800116636097e-10 1.000000000000e+00 2.165000000000e+03 0.000000000000e+00
    2.400000000000e+00 0.000000000000e+00 2.793967723846e-09 6.200000000000e+01
    4.320000000000e+04 4.000000000000e+00
17 21  7  4 14  0  0.0 4.685739986598e-04 5.911715561524e-12 0.000000000000e+00
    7.500000000000e+01-4.015625000000e+01 4.263749030833e-09 2.525748986509e+00
   -2.034008502960e-06 1.337181485724e-02 3.576278686523e-06 5.153622049332e+03
    5.040000000000e+04 1.639127731323e-07 1.099499254649e+00-1.173466444016e-07
    9.817247583767e-01 3.171250000000e+02-1.564349071269e+00-7.899971922683e-09
   -2.757257707994e-10 1.000000000000e+00 2.165000000000e+03 0.000000000000e+00
    2.400000000000e+00 0.000000000000e+00-1.117587089539e-08 7.500000000000e+01
    4.320000000000e+04 4.000000000000e+00
11 21  7  4 14  0  0.0 6.541609764099e-06 1.148237060988e-11 0.000000000000e+00
    7.100000000000e+01-6.990625000000e+01 4.376610874839e-09-2.562275357716e+00
   -3.548339009285e-06 5.046779988334e-04 8.845701813698e-06 5.153666534424e+03
    5.040000000000e+04 1.862645149231e-09 2.145930562027e+00 5.587935447693e-08
    9.597437032576e-01 2.094375000000e+02 1.596012141020e+00-7.982475359282e-09
   -2.642967233051e-11 1.000000000000e+00 2.165000000000e+03 0.000000000000e+00
    3.400000000000e+00 6.300000000000e+01-5.587935447693e-09 7.100000000000e+01
    4.320000000000e+04 4.000000000000e+00
